<?xml version="1.0" encoding="UTF-8"?>
<kml xmlns="http://www.opengis.net/kml/2.2" xmlns:gx="http://www.google.com/kml/ext/2.2" xmlns:kml="http://www.opengis.net/kml/2.2" xmlns:atom="http://www.w3.org/2005/Atom">
<Document>
	<name>PKKPRL Dumai Rupat.kmz</name>
	<atom:link rel="app" href="https://www.google.com/earth/about/versions/#earth-pro" title="Google Earth Pro 7.3.7.1094"></atom:link>
	<StyleMap id="m_ylw-pushpin">
		<Pair>
			<key>normal</key>
			<styleUrl>#s_ylw-pushpin</styleUrl>
		</Pair>
		<Pair>
			<key>highlight</key>
			<styleUrl>#s_ylw-pushpin_hl</styleUrl>
		</Pair>
	</StyleMap>
	<Style id="s_ylw-pushpin">
		<IconStyle>
			<scale>1.1</scale>
			<Icon>
				<href>http://maps.google.com/mapfiles/kml/pushpin/ylw-pushpin.png</href>
			</Icon>
			<hotSpot x="20" y="2" xunits="pixels" yunits="pixels"/>
		</IconStyle>
	</Style>
	<Style id="s_ylw-pushpin_hl">
		<IconStyle>
			<scale>1.3</scale>
			<Icon>
				<href>http://maps.google.com/mapfiles/kml/pushpin/ylw-pushpin.png</href>
			</Icon>
			<hotSpot x="20" y="2" xunits="pixels" yunits="pixels"/>
		</IconStyle>
	</Style>
	<Folder>
		<name>PKKPRL Dumai Rupat</name>
		<Placemark>
			<name>1</name>
			<LookAt>
				<longitude>106.3678984153966</longitude>
				<latitude>-5.192816889816777</latitude>
				<altitude>0</altitude>
				<heading>1.071556264752902</heading>
				<tilt>6.746757501585204</tilt>
				<range>5210.321176233731</range>
				<gx:altitudeMode>relativeToSeaFloor</gx:altitudeMode>
			</LookAt>
			<styleUrl>#m_ylw-pushpin</styleUrl>
			<Point>
				<gx:drawOrder>1</gx:drawOrder>
				<coordinates>101.5189472222222,1.652269444444444,0</coordinates>
			</Point>
		</Placemark>
		<Placemark>
			<name>2</name>
			<LookAt>
				<longitude>101.6711809519894</longitude>
				<latitude>-1.597719893453146</latitude>
				<altitude>0</altitude>
				<heading>1.350565609909038</heading>
				<tilt>0</tilt>
				<range>209204.5838695521</range>
				<gx:altitudeMode>relativeToSeaFloor</gx:altitudeMode>
			</LookAt>
			<styleUrl>#m_ylw-pushpin</styleUrl>
			<Point>
				<gx:drawOrder>1</gx:drawOrder>
				<coordinates>101.5189597222222,1.652316666666667,0</coordinates>
			</Point>
		</Placemark>
		<Placemark>
			<name>3</name>
			<LookAt>
				<longitude>101.5192051192669</longitude>
				<latitude>-1.650308070472038</latitude>
				<altitude>0</altitude>
				<heading>1.354956242933049</heading>
				<tilt>15.47309555398088</tilt>
				<range>4020.782320079528</range>
				<gx:altitudeMode>relativeToSeaFloor</gx:altitudeMode>
			</LookAt>
			<styleUrl>#m_ylw-pushpin</styleUrl>
			<Point>
				<gx:drawOrder>1</gx:drawOrder>
				<coordinates>101.519125,1.652963888888889,0</coordinates>
			</Point>
		</Placemark>
		<Placemark>
			<name>4</name>
			<LookAt>
				<longitude>101.5192051192669</longitude>
				<latitude>-1.650308070472038</latitude>
				<altitude>0</altitude>
				<heading>1.354956242933049</heading>
				<tilt>15.47309555398088</tilt>
				<range>4020.782320079528</range>
				<gx:altitudeMode>relativeToSeaFloor</gx:altitudeMode>
			</LookAt>
			<styleUrl>#m_ylw-pushpin</styleUrl>
			<Point>
				<gx:drawOrder>1</gx:drawOrder>
				<coordinates>101.5191313888889,1.653,0</coordinates>
			</Point>
		</Placemark>
		<Placemark>
			<name>5</name>
			<LookAt>
				<longitude>101.5192379843543</longitude>
				<latitude>-1.652469179904835</latitude>
				<altitude>0</altitude>
				<heading>1.355777842841183</heading>
				<tilt>23.8829642513226</tilt>
				<range>159.8812358672466</range>
				<gx:altitudeMode>relativeToSeaFloor</gx:altitudeMode>
			</LookAt>
			<styleUrl>#m_ylw-pushpin</styleUrl>
			<Point>
				<gx:drawOrder>1</gx:drawOrder>
				<coordinates>101.5191327777778,1.653038888888889,0</coordinates>
			</Point>
		</Placemark>
		<Placemark>
			<name>6</name>
			<LookAt>
				<longitude>101.5192379843543</longitude>
				<latitude>-1.652469179904835</latitude>
				<altitude>0</altitude>
				<heading>1.355777842841183</heading>
				<tilt>23.8829642513226</tilt>
				<range>159.8812358672466</range>
				<gx:altitudeMode>relativeToSeaFloor</gx:altitudeMode>
			</LookAt>
			<styleUrl>#m_ylw-pushpin</styleUrl>
			<Point>
				<gx:drawOrder>1</gx:drawOrder>
				<coordinates>101.5191111111111,1.6538,0</coordinates>
			</Point>
		</Placemark>
		<Placemark>
			<name>7</name>
			<LookAt>
				<longitude>101.5187321698455</longitude>
				<latitude>-1.653959952561893</latitude>
				<altitude>0</altitude>
				<heading>1.352257779931349</heading>
				<tilt>11.1603294806282</tilt>
				<range>1247.978985501381</range>
				<gx:altitudeMode>relativeToSeaFloor</gx:altitudeMode>
			</LookAt>
			<styleUrl>#m_ylw-pushpin</styleUrl>
			<Point>
				<gx:drawOrder>1</gx:drawOrder>
				<coordinates>101.5190736111111,1.65515,0</coordinates>
			</Point>
		</Placemark>
		<Placemark>
			<name>8</name>
			<LookAt>
				<longitude>101.5187321698241</longitude>
				<latitude>-1.653959952307555</latitude>
				<altitude>0</altitude>
				<heading>1.352257779793725</heading>
				<tilt>11.16032948088192</tilt>
				<range>1247.978992536368</range>
				<gx:altitudeMode>relativeToSeaFloor</gx:altitudeMode>
			</LookAt>
			<styleUrl>#m_ylw-pushpin</styleUrl>
			<Point>
				<gx:drawOrder>1</gx:drawOrder>
				<coordinates>101.5190730555556,1.655158333333334,0</coordinates>
			</Point>
		</Placemark>
		<Placemark>
			<name>9</name>
			<LookAt>
				<longitude>101.5187321698241</longitude>
				<latitude>-1.653959952307555</latitude>
				<altitude>0</altitude>
				<heading>1.352257779793725</heading>
				<tilt>11.16032948088192</tilt>
				<range>1247.978992536368</range>
				<gx:altitudeMode>relativeToSeaFloor</gx:altitudeMode>
			</LookAt>
			<styleUrl>#m_ylw-pushpin</styleUrl>
			<Point>
				<gx:drawOrder>1</gx:drawOrder>
				<coordinates>101.5189833333333,1.656647222222222,0</coordinates>
			</Point>
		</Placemark>
		<Placemark>
			<name>10</name>
			<LookAt>
				<longitude>101.5187321698241</longitude>
				<latitude>-1.653959952307555</latitude>
				<altitude>0</altitude>
				<heading>1.352257779793725</heading>
				<tilt>11.16032948088192</tilt>
				<range>1247.978992536368</range>
				<gx:altitudeMode>relativeToSeaFloor</gx:altitudeMode>
			</LookAt>
			<styleUrl>#m_ylw-pushpin</styleUrl>
			<Point>
				<gx:drawOrder>1</gx:drawOrder>
				<coordinates>101.5189083333333,1.657602777777778,0</coordinates>
			</Point>
		</Placemark>
		<Placemark>
			<name>11</name>
			<LookAt>
				<longitude>101.5187321698241</longitude>
				<latitude>-1.653959952307555</latitude>
				<altitude>0</altitude>
				<heading>1.352257779793725</heading>
				<tilt>11.16032948088192</tilt>
				<range>1247.978992536368</range>
				<gx:altitudeMode>relativeToSeaFloor</gx:altitudeMode>
			</LookAt>
			<styleUrl>#m_ylw-pushpin</styleUrl>
			<Point>
				<gx:drawOrder>1</gx:drawOrder>
				<coordinates>101.5188638888889,1.659116666666666,0</coordinates>
			</Point>
		</Placemark>
		<Placemark>
			<name>12</name>
			<LookAt>
				<longitude>101.5187321698241</longitude>
				<latitude>-1.653959952307555</latitude>
				<altitude>0</altitude>
				<heading>1.352257779793725</heading>
				<tilt>11.16032948088192</tilt>
				<range>1247.978992536368</range>
				<gx:altitudeMode>relativeToSeaFloor</gx:altitudeMode>
			</LookAt>
			<styleUrl>#m_ylw-pushpin</styleUrl>
			<Point>
				<gx:drawOrder>1</gx:drawOrder>
				<coordinates>101.519025,1.660066666666666,0</coordinates>
			</Point>
		</Placemark>
		<Placemark>
			<name>13</name>
			<LookAt>
				<longitude>101.5187321698241</longitude>
				<latitude>-1.653959952307555</latitude>
				<altitude>0</altitude>
				<heading>1.352257779793725</heading>
				<tilt>11.16032948088192</tilt>
				<range>1247.978992536368</range>
				<gx:altitudeMode>relativeToSeaFloor</gx:altitudeMode>
			</LookAt>
			<styleUrl>#m_ylw-pushpin</styleUrl>
			<Point>
				<gx:drawOrder>1</gx:drawOrder>
				<coordinates>101.519475,1.661325,0</coordinates>
			</Point>
		</Placemark>
		<Placemark>
			<name>14</name>
			<LookAt>
				<longitude>101.5187321698241</longitude>
				<latitude>-1.653959952307555</latitude>
				<altitude>0</altitude>
				<heading>1.352257779793725</heading>
				<tilt>11.16032948088192</tilt>
				<range>1247.978992536368</range>
				<gx:altitudeMode>relativeToSeaFloor</gx:altitudeMode>
			</LookAt>
			<styleUrl>#m_ylw-pushpin</styleUrl>
			<Point>
				<gx:drawOrder>1</gx:drawOrder>
				<coordinates>101.5204222222222,1.663758333333333,0</coordinates>
			</Point>
		</Placemark>
		<Placemark>
			<name>15</name>
			<LookAt>
				<longitude>101.5214213587905</longitude>
				<latitude>-1.662529853482912</latitude>
				<altitude>0</altitude>
				<heading>1.352179804676019</heading>
				<tilt>11.16029317586102</tilt>
				<range>1227.096632107561</range>
				<gx:altitudeMode>relativeToSeaFloor</gx:altitudeMode>
			</LookAt>
			<styleUrl>#m_ylw-pushpin</styleUrl>
			<Point>
				<gx:drawOrder>1</gx:drawOrder>
				<coordinates>101.5204305555556,1.663794444444444,0</coordinates>
			</Point>
		</Placemark>
		<Placemark>
			<name>16</name>
			<LookAt>
				<longitude>101.5214213587905</longitude>
				<latitude>-1.662529853482912</latitude>
				<altitude>0</altitude>
				<heading>1.352179804676019</heading>
				<tilt>11.16029317586102</tilt>
				<range>1227.096632107561</range>
				<gx:altitudeMode>relativeToSeaFloor</gx:altitudeMode>
			</LookAt>
			<styleUrl>#m_ylw-pushpin</styleUrl>
			<Point>
				<gx:drawOrder>1</gx:drawOrder>
				<coordinates>101.5204416666667,1.663836111111111,0</coordinates>
			</Point>
		</Placemark>
		<Placemark>
			<name>17</name>
			<LookAt>
				<longitude>101.5214213587905</longitude>
				<latitude>-1.662529853482912</latitude>
				<altitude>0</altitude>
				<heading>1.352179804676019</heading>
				<tilt>11.16029317586102</tilt>
				<range>1227.096632107561</range>
				<gx:altitudeMode>relativeToSeaFloor</gx:altitudeMode>
			</LookAt>
			<styleUrl>#m_ylw-pushpin</styleUrl>
			<Point>
				<gx:drawOrder>1</gx:drawOrder>
				<coordinates>101.52044,1.663877777777778,0</coordinates>
			</Point>
		</Placemark>
		<Placemark>
			<name>18</name>
			<LookAt>
				<longitude>101.5214213587905</longitude>
				<latitude>-1.662529853482912</latitude>
				<altitude>0</altitude>
				<heading>1.352179804676019</heading>
				<tilt>11.16029317586102</tilt>
				<range>1227.096632107561</range>
				<gx:altitudeMode>relativeToSeaFloor</gx:altitudeMode>
			</LookAt>
			<styleUrl>#m_ylw-pushpin</styleUrl>
			<Point>
				<gx:drawOrder>1</gx:drawOrder>
				<coordinates>101.5204311111111,1.663916666666666,0</coordinates>
			</Point>
		</Placemark>
		<Placemark>
			<name>19</name>
			<LookAt>
				<longitude>101.5214213587905</longitude>
				<latitude>-1.662529853482912</latitude>
				<altitude>0</altitude>
				<heading>1.352179804676019</heading>
				<tilt>11.16029317586102</tilt>
				<range>1227.096632107561</range>
				<gx:altitudeMode>relativeToSeaFloor</gx:altitudeMode>
			</LookAt>
			<styleUrl>#m_ylw-pushpin</styleUrl>
			<Point>
				<gx:drawOrder>1</gx:drawOrder>
				<coordinates>101.5204222222222,1.663955555555555,0</coordinates>
			</Point>
		</Placemark>
		<Placemark>
			<name>20</name>
			<LookAt>
				<longitude>101.5222625034102</longitude>
				<latitude>-1.662525499698064</latitude>
				<altitude>0</altitude>
				<heading>1.344865867551529</heading>
				<tilt>4.043251030957278</tilt>
				<range>1181.291736711995</range>
				<gx:altitudeMode>relativeToSeaFloor</gx:altitudeMode>
			</LookAt>
			<styleUrl>#m_ylw-pushpin</styleUrl>
			<Point>
				<gx:drawOrder>1</gx:drawOrder>
				<coordinates>101.5199147222222,1.665241666666667,0</coordinates>
			</Point>
		</Placemark>
		<Placemark>
			<name>21</name>
			<LookAt>
				<longitude>101.5222625034102</longitude>
				<latitude>-1.662525499698064</latitude>
				<altitude>0</altitude>
				<heading>1.344865867551529</heading>
				<tilt>4.043251030957278</tilt>
				<range>1181.291736711995</range>
				<gx:altitudeMode>relativeToSeaFloor</gx:altitudeMode>
			</LookAt>
			<styleUrl>#m_ylw-pushpin</styleUrl>
			<Point>
				<gx:drawOrder>1</gx:drawOrder>
				<coordinates>101.5199125,1.665263888888889,0</coordinates>
			</Point>
		</Placemark>
		<Placemark>
			<name>22</name>
			<LookAt>
				<longitude>101.5222625038344</longitude>
				<latitude>-1.66252549985412</latitude>
				<altitude>0</altitude>
				<heading>1.344865873588938</heading>
				<tilt>4.043251030811037</tilt>
				<range>1181.291734319384</range>
				<gx:altitudeMode>relativeToSeaFloor</gx:altitudeMode>
			</LookAt>
			<styleUrl>#m_ylw-pushpin</styleUrl>
			<Point>
				<gx:drawOrder>1</gx:drawOrder>
				<coordinates>101.5199158333333,1.665294444444444,0</coordinates>
			</Point>
		</Placemark>
		<Placemark>
			<name>23</name>
			<LookAt>
				<longitude>101.5222625038344</longitude>
				<latitude>-1.66252549985412</latitude>
				<altitude>0</altitude>
				<heading>1.344865873588938</heading>
				<tilt>4.043251030811037</tilt>
				<range>1181.291734319384</range>
				<gx:altitudeMode>relativeToSeaFloor</gx:altitudeMode>
			</LookAt>
			<styleUrl>#m_ylw-pushpin</styleUrl>
			<Point>
				<gx:drawOrder>1</gx:drawOrder>
				<coordinates>101.5200480555555,1.665713888888889,0</coordinates>
			</Point>
		</Placemark>
		<Placemark>
			<name>24</name>
			<LookAt>
				<longitude>101.5222625038344</longitude>
				<latitude>-1.66252549985412</latitude>
				<altitude>0</altitude>
				<heading>1.344865873588938</heading>
				<tilt>4.043251030811037</tilt>
				<range>1181.291734319384</range>
				<gx:altitudeMode>relativeToSeaFloor</gx:altitudeMode>
			</LookAt>
			<styleUrl>#m_ylw-pushpin</styleUrl>
			<Point>
				<gx:drawOrder>1</gx:drawOrder>
				<coordinates>101.5200555555556,1.66575,0</coordinates>
			</Point>
		</Placemark>
		<Placemark>
			<name>25</name>
			<LookAt>
				<longitude>101.5222625038344</longitude>
				<latitude>-1.66252549985412</latitude>
				<altitude>0</altitude>
				<heading>1.344865873588938</heading>
				<tilt>4.043251030811037</tilt>
				<range>1181.291734319384</range>
				<gx:altitudeMode>relativeToSeaFloor</gx:altitudeMode>
			</LookAt>
			<styleUrl>#m_ylw-pushpin</styleUrl>
			<Point>
				<gx:drawOrder>1</gx:drawOrder>
				<coordinates>101.5200583333333,1.665775,0</coordinates>
			</Point>
		</Placemark>
		<Placemark>
			<name>26</name>
			<LookAt>
				<longitude>101.5222625038344</longitude>
				<latitude>-1.66252549985412</latitude>
				<altitude>0</altitude>
				<heading>1.344865873588938</heading>
				<tilt>4.043251030811037</tilt>
				<range>1181.291734319384</range>
				<gx:altitudeMode>relativeToSeaFloor</gx:altitudeMode>
			</LookAt>
			<styleUrl>#m_ylw-pushpin</styleUrl>
			<Point>
				<gx:drawOrder>1</gx:drawOrder>
				<coordinates>101.5201691666667,1.667236111111111,0</coordinates>
			</Point>
		</Placemark>
		<Placemark>
			<name>27</name>
			<LookAt>
				<longitude>101.5222625038344</longitude>
				<latitude>-1.66252549985412</latitude>
				<altitude>0</altitude>
				<heading>1.344865873588938</heading>
				<tilt>4.043251030811037</tilt>
				<range>1181.291734319384</range>
				<gx:altitudeMode>relativeToSeaFloor</gx:altitudeMode>
			</LookAt>
			<styleUrl>#m_ylw-pushpin</styleUrl>
			<Point>
				<gx:drawOrder>1</gx:drawOrder>
				<coordinates>101.5203308333333,1.668508333333333,0</coordinates>
			</Point>
		</Placemark>
		<Placemark>
			<name>28</name>
			<LookAt>
				<longitude>101.5222625038344</longitude>
				<latitude>-1.66252549985412</latitude>
				<altitude>0</altitude>
				<heading>1.344865873588938</heading>
				<tilt>4.043251030811037</tilt>
				<range>1181.291734319384</range>
				<gx:altitudeMode>relativeToSeaFloor</gx:altitudeMode>
			</LookAt>
			<styleUrl>#m_ylw-pushpin</styleUrl>
			<Point>
				<gx:drawOrder>1</gx:drawOrder>
				<coordinates>101.5207838888889,1.67005,0</coordinates>
			</Point>
		</Placemark>
		<Placemark>
			<name>29</name>
			<LookAt>
				<longitude>101.5222625038344</longitude>
				<latitude>-1.66252549985412</latitude>
				<altitude>0</altitude>
				<heading>1.344865873588938</heading>
				<tilt>4.043251030811037</tilt>
				<range>1181.291734319384</range>
				<gx:altitudeMode>relativeToSeaFloor</gx:altitudeMode>
			</LookAt>
			<styleUrl>#m_ylw-pushpin</styleUrl>
			<Point>
				<gx:drawOrder>1</gx:drawOrder>
				<coordinates>101.5210163888889,1.671352777777778,0</coordinates>
			</Point>
		</Placemark>
		<Placemark>
			<name>30</name>
			<LookAt>
				<longitude>101.5222625038344</longitude>
				<latitude>-1.66252549985412</latitude>
				<altitude>0</altitude>
				<heading>1.344865873588938</heading>
				<tilt>4.043251030811037</tilt>
				<range>1181.291734319384</range>
				<gx:altitudeMode>relativeToSeaFloor</gx:altitudeMode>
			</LookAt>
			<styleUrl>#m_ylw-pushpin</styleUrl>
			<Point>
				<gx:drawOrder>1</gx:drawOrder>
				<coordinates>101.5210486111111,1.671558333333333,0</coordinates>
			</Point>
		</Placemark>
		<Placemark>
			<name>31</name>
			<LookAt>
				<longitude>101.5222625038344</longitude>
				<latitude>-1.66252549985412</latitude>
				<altitude>0</altitude>
				<heading>1.344865873588938</heading>
				<tilt>4.043251030811037</tilt>
				<range>1181.291734319384</range>
				<gx:altitudeMode>relativeToSeaFloor</gx:altitudeMode>
			</LookAt>
			<styleUrl>#m_ylw-pushpin</styleUrl>
			<Point>
				<gx:drawOrder>1</gx:drawOrder>
				<coordinates>101.5210527777778,1.671591666666667,0</coordinates>
			</Point>
		</Placemark>
		<Placemark>
			<name>32</name>
			<LookAt>
				<longitude>101.5233885383276</longitude>
				<latitude>-1.674749491460648</latitude>
				<altitude>0</altitude>
				<heading>1.344833359831652</heading>
				<tilt>4.043205534378759</tilt>
				<range>1109.454476322408</range>
				<gx:altitudeMode>relativeToSeaFloor</gx:altitudeMode>
			</LookAt>
			<styleUrl>#m_ylw-pushpin</styleUrl>
			<Point>
				<gx:drawOrder>1</gx:drawOrder>
				<coordinates>101.5212888888889,1.673816666666667,0</coordinates>
			</Point>
		</Placemark>
		<Placemark>
			<name>33</name>
			<LookAt>
				<longitude>101.5233885383276</longitude>
				<latitude>-1.674749491460648</latitude>
				<altitude>0</altitude>
				<heading>1.344833359831652</heading>
				<tilt>4.043205534378759</tilt>
				<range>1109.454476322408</range>
				<gx:altitudeMode>relativeToSeaFloor</gx:altitudeMode>
			</LookAt>
			<styleUrl>#m_ylw-pushpin</styleUrl>
			<Point>
				<gx:drawOrder>1</gx:drawOrder>
				<coordinates>101.5212916666667,1.673880555555555,0</coordinates>
			</Point>
		</Placemark>
		<Placemark>
			<name>34</name>
			<LookAt>
				<longitude>101.5233885383276</longitude>
				<latitude>-1.674749491460648</latitude>
				<altitude>0</altitude>
				<heading>1.344833359831652</heading>
				<tilt>4.043205534378759</tilt>
				<range>1109.454476322408</range>
				<gx:altitudeMode>relativeToSeaFloor</gx:altitudeMode>
			</LookAt>
			<styleUrl>#m_ylw-pushpin</styleUrl>
			<Point>
				<gx:drawOrder>1</gx:drawOrder>
				<coordinates>101.5212916666667,1.673908333333333,0</coordinates>
			</Point>
		</Placemark>
		<Placemark>
			<name>35</name>
			<LookAt>
				<longitude>101.5233885383276</longitude>
				<latitude>-1.674749491460648</latitude>
				<altitude>0</altitude>
				<heading>1.344833359831652</heading>
				<tilt>4.043205534378759</tilt>
				<range>1109.454476322408</range>
				<gx:altitudeMode>relativeToSeaFloor</gx:altitudeMode>
			</LookAt>
			<styleUrl>#m_ylw-pushpin</styleUrl>
			<Point>
				<gx:drawOrder>1</gx:drawOrder>
				<coordinates>101.5212694444444,1.674308333333333,0</coordinates>
			</Point>
		</Placemark>
		<Placemark>
			<name>36</name>
			<LookAt>
				<longitude>101.5233885383276</longitude>
				<latitude>-1.674749491460648</latitude>
				<altitude>0</altitude>
				<heading>1.344833359831652</heading>
				<tilt>4.043205534378759</tilt>
				<range>1109.454476322408</range>
				<gx:altitudeMode>relativeToSeaFloor</gx:altitudeMode>
			</LookAt>
			<styleUrl>#m_ylw-pushpin</styleUrl>
			<Point>
				<gx:drawOrder>1</gx:drawOrder>
				<coordinates>101.5212722222222,1.674347222222222,0</coordinates>
			</Point>
		</Placemark>
		<Placemark>
			<name>37</name>
			<LookAt>
				<longitude>101.5233885383276</longitude>
				<latitude>-1.674749491460648</latitude>
				<altitude>0</altitude>
				<heading>1.344833359831652</heading>
				<tilt>4.043205534378759</tilt>
				<range>1109.454476322408</range>
				<gx:altitudeMode>relativeToSeaFloor</gx:altitudeMode>
			</LookAt>
			<styleUrl>#m_ylw-pushpin</styleUrl>
			<Point>
				<gx:drawOrder>1</gx:drawOrder>
				<coordinates>101.5212805555555,1.674383333333333,0</coordinates>
			</Point>
		</Placemark>
		<Placemark>
			<name>38</name>
			<LookAt>
				<longitude>101.5233885383276</longitude>
				<latitude>-1.674749491460648</latitude>
				<altitude>0</altitude>
				<heading>1.344833359831652</heading>
				<tilt>4.043205534378759</tilt>
				<range>1109.454476322408</range>
				<gx:altitudeMode>relativeToSeaFloor</gx:altitudeMode>
			</LookAt>
			<styleUrl>#m_ylw-pushpin</styleUrl>
			<Point>
				<gx:drawOrder>1</gx:drawOrder>
				<coordinates>101.5212833333333,1.674397222222222,0</coordinates>
			</Point>
		</Placemark>
		<Placemark>
			<name>39</name>
			<LookAt>
				<longitude>101.5233885383276</longitude>
				<latitude>-1.674749491460648</latitude>
				<altitude>0</altitude>
				<heading>1.344833359831652</heading>
				<tilt>4.043205534378759</tilt>
				<range>1109.454476322408</range>
				<gx:altitudeMode>relativeToSeaFloor</gx:altitudeMode>
			</LookAt>
			<styleUrl>#m_ylw-pushpin</styleUrl>
			<Point>
				<gx:drawOrder>1</gx:drawOrder>
				<coordinates>101.5212972222222,1.674452777777778,0</coordinates>
			</Point>
		</Placemark>
		<Placemark>
			<name>40</name>
			<LookAt>
				<longitude>101.5233885383276</longitude>
				<latitude>-1.674749491460648</latitude>
				<altitude>0</altitude>
				<heading>1.344833359831652</heading>
				<tilt>4.043205534378759</tilt>
				<range>1109.454476322408</range>
				<gx:altitudeMode>relativeToSeaFloor</gx:altitudeMode>
			</LookAt>
			<styleUrl>#m_ylw-pushpin</styleUrl>
			<Point>
				<gx:drawOrder>1</gx:drawOrder>
				<coordinates>101.521305,1.674497222222222,0</coordinates>
			</Point>
		</Placemark>
		<Placemark>
			<name>41</name>
			<LookAt>
				<longitude>101.5185687514752</longitude>
				<latitude>-1.669747204131666</latitude>
				<altitude>0</altitude>
				<heading>-2.546621420781443</heading>
				<tilt>9.446507780482746</tilt>
				<range>2080.044116913664</range>
				<gx:altitudeMode>relativeToSeaFloor</gx:altitudeMode>
			</LookAt>
			<styleUrl>#m_ylw-pushpin</styleUrl>
			<Point>
				<gx:drawOrder>1</gx:drawOrder>
				<coordinates>101.5214777777778,1.675933333333333,0</coordinates>
			</Point>
		</Placemark>
		<Placemark>
			<name>42</name>
			<LookAt>
				<longitude>101.5185687514752</longitude>
				<latitude>-1.669747204131666</latitude>
				<altitude>0</altitude>
				<heading>-2.546621420781443</heading>
				<tilt>9.446507780482746</tilt>
				<range>2080.044116913664</range>
				<gx:altitudeMode>relativeToSeaFloor</gx:altitudeMode>
			</LookAt>
			<styleUrl>#m_ylw-pushpin</styleUrl>
			<Point>
				<gx:drawOrder>1</gx:drawOrder>
				<coordinates>101.5214797222222,1.675944444444444,0</coordinates>
			</Point>
		</Placemark>
		<Placemark>
			<name>43</name>
			<LookAt>
				<longitude>101.5185687514752</longitude>
				<latitude>-1.669747204131666</latitude>
				<altitude>0</altitude>
				<heading>-2.546621420781443</heading>
				<tilt>9.446507780482746</tilt>
				<range>2080.044116913664</range>
				<gx:altitudeMode>relativeToSeaFloor</gx:altitudeMode>
			</LookAt>
			<styleUrl>#m_ylw-pushpin</styleUrl>
			<Point>
				<gx:drawOrder>1</gx:drawOrder>
				<coordinates>101.5214861111111,1.675969444444444,0</coordinates>
			</Point>
		</Placemark>
		<Placemark>
			<name>44</name>
			<LookAt>
				<longitude>101.5185687514752</longitude>
				<latitude>-1.669747204131666</latitude>
				<altitude>0</altitude>
				<heading>-2.546621420781443</heading>
				<tilt>9.446507780482746</tilt>
				<range>2080.044116913664</range>
				<gx:altitudeMode>relativeToSeaFloor</gx:altitudeMode>
			</LookAt>
			<styleUrl>#m_ylw-pushpin</styleUrl>
			<Point>
				<gx:drawOrder>1</gx:drawOrder>
				<coordinates>101.5220425,1.677819444444444,0</coordinates>
			</Point>
		</Placemark>
		<Placemark>
			<name>45</name>
			<LookAt>
				<longitude>101.5185687514752</longitude>
				<latitude>-1.669747204131666</latitude>
				<altitude>0</altitude>
				<heading>-2.546621420781443</heading>
				<tilt>9.446507780482746</tilt>
				<range>2080.044116913664</range>
				<gx:altitudeMode>relativeToSeaFloor</gx:altitudeMode>
			</LookAt>
			<styleUrl>#m_ylw-pushpin</styleUrl>
			<Point>
				<gx:drawOrder>1</gx:drawOrder>
				<coordinates>101.5220555555556,1.677866666666667,0</coordinates>
			</Point>
		</Placemark>
		<Placemark>
			<name>46</name>
			<LookAt>
				<longitude>101.5185687514752</longitude>
				<latitude>-1.669747204131666</latitude>
				<altitude>0</altitude>
				<heading>-2.546621420781443</heading>
				<tilt>9.446507780482746</tilt>
				<range>2080.044116913664</range>
				<gx:altitudeMode>relativeToSeaFloor</gx:altitudeMode>
			</LookAt>
			<styleUrl>#m_ylw-pushpin</styleUrl>
			<Point>
				<gx:drawOrder>1</gx:drawOrder>
				<coordinates>101.5220619444444,1.677911111111111,0</coordinates>
			</Point>
		</Placemark>
		<Placemark>
			<name>47</name>
			<LookAt>
				<longitude>101.5185687514752</longitude>
				<latitude>-1.669747204131666</latitude>
				<altitude>0</altitude>
				<heading>-2.546621420781443</heading>
				<tilt>9.446507780482746</tilt>
				<range>2080.044116913664</range>
				<gx:altitudeMode>relativeToSeaFloor</gx:altitudeMode>
			</LookAt>
			<styleUrl>#m_ylw-pushpin</styleUrl>
			<Point>
				<gx:drawOrder>1</gx:drawOrder>
				<coordinates>101.5220663888889,1.677961111111111,0</coordinates>
			</Point>
		</Placemark>
		<Placemark>
			<name>48</name>
			<LookAt>
				<longitude>101.5185687514752</longitude>
				<latitude>-1.669747204131666</latitude>
				<altitude>0</altitude>
				<heading>-2.546621420781443</heading>
				<tilt>9.446507780482746</tilt>
				<range>2080.044116913664</range>
				<gx:altitudeMode>relativeToSeaFloor</gx:altitudeMode>
			</LookAt>
			<styleUrl>#m_ylw-pushpin</styleUrl>
			<Point>
				<gx:drawOrder>1</gx:drawOrder>
				<coordinates>101.5221555555556,1.679808333333333,0</coordinates>
			</Point>
		</Placemark>
		<Placemark>
			<name>49</name>
			<LookAt>
				<longitude>101.5185687514752</longitude>
				<latitude>-1.669747204131666</latitude>
				<altitude>0</altitude>
				<heading>-2.546621420781443</heading>
				<tilt>9.446507780482746</tilt>
				<range>2080.044116913664</range>
				<gx:altitudeMode>relativeToSeaFloor</gx:altitudeMode>
			</LookAt>
			<styleUrl>#m_ylw-pushpin</styleUrl>
			<Point>
				<gx:drawOrder>1</gx:drawOrder>
				<coordinates>101.5221583333333,1.679836111111111,0</coordinates>
			</Point>
		</Placemark>
		<Placemark>
			<name>50</name>
			<LookAt>
				<longitude>101.5185687514752</longitude>
				<latitude>-1.669747204131666</latitude>
				<altitude>0</altitude>
				<heading>-2.546621420781443</heading>
				<tilt>9.446507780482746</tilt>
				<range>2080.044116913664</range>
				<gx:altitudeMode>relativeToSeaFloor</gx:altitudeMode>
			</LookAt>
			<styleUrl>#m_ylw-pushpin</styleUrl>
			<Point>
				<gx:drawOrder>1</gx:drawOrder>
				<coordinates>101.5221627777778,1.679852777777778,0</coordinates>
			</Point>
		</Placemark>
		<Placemark>
			<name>51</name>
			<LookAt>
				<longitude>101.5185687514752</longitude>
				<latitude>-1.669747204131666</latitude>
				<altitude>0</altitude>
				<heading>-2.546621420781443</heading>
				<tilt>9.446507780482746</tilt>
				<range>2080.044116913664</range>
				<gx:altitudeMode>relativeToSeaFloor</gx:altitudeMode>
			</LookAt>
			<styleUrl>#m_ylw-pushpin</styleUrl>
			<Point>
				<gx:drawOrder>1</gx:drawOrder>
				<coordinates>101.5225841666667,1.681430555555555,0</coordinates>
			</Point>
		</Placemark>
		<Placemark>
			<name>52</name>
			<LookAt>
				<longitude>101.5185687514752</longitude>
				<latitude>-1.669747204131666</latitude>
				<altitude>0</altitude>
				<heading>-2.546621420781443</heading>
				<tilt>9.446507780482746</tilt>
				<range>2080.044116913664</range>
				<gx:altitudeMode>relativeToSeaFloor</gx:altitudeMode>
			</LookAt>
			<styleUrl>#m_ylw-pushpin</styleUrl>
			<Point>
				<gx:drawOrder>1</gx:drawOrder>
				<coordinates>101.5225952777778,1.681480555555555,0</coordinates>
			</Point>
		</Placemark>
		<Placemark>
			<name>53</name>
			<LookAt>
				<longitude>101.5296807366436</longitude>
				<latitude>-1.676012753495283</latitude>
				<altitude>0</altitude>
				<heading>-2.546945584886755</heading>
				<tilt>9.446471822915735</tilt>
				<range>2055.654186107611</range>
				<gx:altitudeMode>relativeToSeaFloor</gx:altitudeMode>
			</LookAt>
			<styleUrl>#m_ylw-pushpin</styleUrl>
			<Point>
				<gx:drawOrder>1</gx:drawOrder>
				<coordinates>101.5226013888889,1.681527777777778,0</coordinates>
			</Point>
		</Placemark>
		<Placemark>
			<name>54</name>
			<LookAt>
				<longitude>101.5296807366436</longitude>
				<latitude>-1.676012753495283</latitude>
				<altitude>0</altitude>
				<heading>-2.546945584886755</heading>
				<tilt>9.446471822915735</tilt>
				<range>2055.654186107611</range>
				<gx:altitudeMode>relativeToSeaFloor</gx:altitudeMode>
			</LookAt>
			<styleUrl>#m_ylw-pushpin</styleUrl>
			<Point>
				<gx:drawOrder>1</gx:drawOrder>
				<coordinates>101.5226038888889,1.681572222222222,0</coordinates>
			</Point>
		</Placemark>
		<Placemark>
			<name>55</name>
			<LookAt>
				<longitude>101.5296807366436</longitude>
				<latitude>-1.676012753495283</latitude>
				<altitude>0</altitude>
				<heading>-2.546945584886755</heading>
				<tilt>9.446471822915735</tilt>
				<range>2055.654186107611</range>
				<gx:altitudeMode>relativeToSeaFloor</gx:altitudeMode>
			</LookAt>
			<styleUrl>#m_ylw-pushpin</styleUrl>
			<Point>
				<gx:drawOrder>1</gx:drawOrder>
				<coordinates>101.5226027777778,1.681619444444444,0</coordinates>
			</Point>
		</Placemark>
		<Placemark>
			<name>56</name>
			<LookAt>
				<longitude>101.5296807366436</longitude>
				<latitude>-1.676012753495283</latitude>
				<altitude>0</altitude>
				<heading>-2.546945584886755</heading>
				<tilt>9.446471822915735</tilt>
				<range>2055.654186107611</range>
				<gx:altitudeMode>relativeToSeaFloor</gx:altitudeMode>
			</LookAt>
			<styleUrl>#m_ylw-pushpin</styleUrl>
			<Point>
				<gx:drawOrder>1</gx:drawOrder>
				<coordinates>101.5225972222222,1.681669444444444,0</coordinates>
			</Point>
		</Placemark>
		<Placemark>
			<name>57</name>
			<LookAt>
				<longitude>101.5296807366436</longitude>
				<latitude>-1.676012753495283</latitude>
				<altitude>0</altitude>
				<heading>-2.546945584886755</heading>
				<tilt>9.446471822915735</tilt>
				<range>2055.654186107611</range>
				<gx:altitudeMode>relativeToSeaFloor</gx:altitudeMode>
			</LookAt>
			<styleUrl>#m_ylw-pushpin</styleUrl>
			<Point>
				<gx:drawOrder>1</gx:drawOrder>
				<coordinates>101.5224,1.682861111111111,0</coordinates>
			</Point>
		</Placemark>
		<Placemark>
			<name>58</name>
			<LookAt>
				<longitude>101.5296807366436</longitude>
				<latitude>-1.676012753495283</latitude>
				<altitude>0</altitude>
				<heading>-2.546945584886755</heading>
				<tilt>9.446471822915735</tilt>
				<range>2055.654186107611</range>
				<gx:altitudeMode>relativeToSeaFloor</gx:altitudeMode>
			</LookAt>
			<styleUrl>#m_ylw-pushpin</styleUrl>
			<Point>
				<gx:drawOrder>1</gx:drawOrder>
				<coordinates>101.5223944444444,1.682891666666666,0</coordinates>
			</Point>
		</Placemark>
		<Placemark>
			<name>59</name>
			<LookAt>
				<longitude>101.5296807366436</longitude>
				<latitude>-1.676012753495283</latitude>
				<altitude>0</altitude>
				<heading>-2.546945584886755</heading>
				<tilt>9.446471822915735</tilt>
				<range>2055.654186107611</range>
				<gx:altitudeMode>relativeToSeaFloor</gx:altitudeMode>
			</LookAt>
			<styleUrl>#m_ylw-pushpin</styleUrl>
			<Point>
				<gx:drawOrder>1</gx:drawOrder>
				<coordinates>101.5223888888889,1.682927777777777,0</coordinates>
			</Point>
		</Placemark>
		<Placemark>
			<name>60</name>
			<LookAt>
				<longitude>101.5296807366436</longitude>
				<latitude>-1.676012753495283</latitude>
				<altitude>0</altitude>
				<heading>-2.546945584886755</heading>
				<tilt>9.446471822915735</tilt>
				<range>2055.654186107611</range>
				<gx:altitudeMode>relativeToSeaFloor</gx:altitudeMode>
			</LookAt>
			<styleUrl>#m_ylw-pushpin</styleUrl>
			<Point>
				<gx:drawOrder>1</gx:drawOrder>
				<coordinates>101.5223916666667,1.682952777777778,0</coordinates>
			</Point>
		</Placemark>
		<Placemark>
			<name>61</name>
			<LookAt>
				<longitude>101.5296807366436</longitude>
				<latitude>-1.676012753495283</latitude>
				<altitude>0</altitude>
				<heading>-2.546945584886755</heading>
				<tilt>9.446471822915735</tilt>
				<range>2055.654186107611</range>
				<gx:altitudeMode>relativeToSeaFloor</gx:altitudeMode>
			</LookAt>
			<styleUrl>#m_ylw-pushpin</styleUrl>
			<Point>
				<gx:drawOrder>1</gx:drawOrder>
				<coordinates>101.5223972222222,1.682997222222222,0</coordinates>
			</Point>
		</Placemark>
		<Placemark>
			<name>62</name>
			<LookAt>
				<longitude>101.5296807366436</longitude>
				<latitude>-1.676012753495283</latitude>
				<altitude>0</altitude>
				<heading>-2.546945584886755</heading>
				<tilt>9.446471822915735</tilt>
				<range>2055.654186107611</range>
				<gx:altitudeMode>relativeToSeaFloor</gx:altitudeMode>
			</LookAt>
			<styleUrl>#m_ylw-pushpin</styleUrl>
			<Point>
				<gx:drawOrder>1</gx:drawOrder>
				<coordinates>101.5223972222222,1.683011111111111,0</coordinates>
			</Point>
		</Placemark>
		<Placemark>
			<name>63</name>
			<LookAt>
				<longitude>101.5296807366436</longitude>
				<latitude>-1.676012753495283</latitude>
				<altitude>0</altitude>
				<heading>-2.546945584886755</heading>
				<tilt>9.446471822915735</tilt>
				<range>2055.654186107611</range>
				<gx:altitudeMode>relativeToSeaFloor</gx:altitudeMode>
			</LookAt>
			<styleUrl>#m_ylw-pushpin</styleUrl>
			<Point>
				<gx:drawOrder>1</gx:drawOrder>
				<coordinates>101.5224,1.683016666666667,0</coordinates>
			</Point>
		</Placemark>
		<Placemark>
			<name>64</name>
			<LookAt>
				<longitude>101.5296807366436</longitude>
				<latitude>-1.676012753495283</latitude>
				<altitude>0</altitude>
				<heading>-2.546945584886755</heading>
				<tilt>9.446471822915735</tilt>
				<range>2055.654186107611</range>
				<gx:altitudeMode>relativeToSeaFloor</gx:altitudeMode>
			</LookAt>
			<styleUrl>#m_ylw-pushpin</styleUrl>
			<Point>
				<gx:drawOrder>1</gx:drawOrder>
				<coordinates>101.5224083333333,1.683055555555555,0</coordinates>
			</Point>
		</Placemark>
		<Placemark>
			<name>65</name>
			<LookAt>
				<longitude>101.5296807366436</longitude>
				<latitude>-1.676012753495283</latitude>
				<altitude>0</altitude>
				<heading>-2.546945584886755</heading>
				<tilt>9.446471822915735</tilt>
				<range>2055.654186107611</range>
				<gx:altitudeMode>relativeToSeaFloor</gx:altitudeMode>
			</LookAt>
			<styleUrl>#m_ylw-pushpin</styleUrl>
			<Point>
				<gx:drawOrder>1</gx:drawOrder>
				<coordinates>101.5224161111111,1.683086111111111,0</coordinates>
			</Point>
		</Placemark>
		<Placemark>
			<name>66</name>
			<LookAt>
				<longitude>101.5296807366436</longitude>
				<latitude>-1.676012753495283</latitude>
				<altitude>0</altitude>
				<heading>-2.546945584886755</heading>
				<tilt>9.446471822915735</tilt>
				<range>2055.654186107611</range>
				<gx:altitudeMode>relativeToSeaFloor</gx:altitudeMode>
			</LookAt>
			<styleUrl>#m_ylw-pushpin</styleUrl>
			<Point>
				<gx:drawOrder>1</gx:drawOrder>
				<coordinates>101.5224333333333,1.683119444444444,0</coordinates>
			</Point>
		</Placemark>
		<Placemark>
			<name>67</name>
			<LookAt>
				<longitude>101.5296807366436</longitude>
				<latitude>-1.676012753495283</latitude>
				<altitude>0</altitude>
				<heading>-2.546945584886755</heading>
				<tilt>9.446471822915735</tilt>
				<range>2055.654186107611</range>
				<gx:altitudeMode>relativeToSeaFloor</gx:altitudeMode>
			</LookAt>
			<styleUrl>#m_ylw-pushpin</styleUrl>
			<Point>
				<gx:drawOrder>1</gx:drawOrder>
				<coordinates>101.5224444444444,1.683141666666667,0</coordinates>
			</Point>
		</Placemark>
		<Placemark>
			<name>68</name>
			<LookAt>
				<longitude>101.5296807366436</longitude>
				<latitude>-1.676012753495283</latitude>
				<altitude>0</altitude>
				<heading>-2.546945584886755</heading>
				<tilt>9.446471822915735</tilt>
				<range>2055.654186107611</range>
				<gx:altitudeMode>relativeToSeaFloor</gx:altitudeMode>
			</LookAt>
			<styleUrl>#m_ylw-pushpin</styleUrl>
			<Point>
				<gx:drawOrder>1</gx:drawOrder>
				<coordinates>101.5228516666667,1.6838,0</coordinates>
			</Point>
		</Placemark>
		<Placemark>
			<name>69</name>
			<LookAt>
				<longitude>101.5296807366436</longitude>
				<latitude>-1.676012753495283</latitude>
				<altitude>0</altitude>
				<heading>-2.546945584886755</heading>
				<tilt>9.446471822915735</tilt>
				<range>2055.654186107611</range>
				<gx:altitudeMode>relativeToSeaFloor</gx:altitudeMode>
			</LookAt>
			<styleUrl>#m_ylw-pushpin</styleUrl>
			<Point>
				<gx:drawOrder>1</gx:drawOrder>
				<coordinates>101.5228488888889,1.683847222222222,0</coordinates>
			</Point>
		</Placemark>
		<Placemark>
			<name>70</name>
			<LookAt>
				<longitude>101.5296807366436</longitude>
				<latitude>-1.676012753495283</latitude>
				<altitude>0</altitude>
				<heading>-2.546945584886755</heading>
				<tilt>9.446471822915735</tilt>
				<range>2055.654186107611</range>
				<gx:altitudeMode>relativeToSeaFloor</gx:altitudeMode>
			</LookAt>
			<styleUrl>#m_ylw-pushpin</styleUrl>
			<Point>
				<gx:drawOrder>1</gx:drawOrder>
				<coordinates>101.5228675,1.683891666666667,0</coordinates>
			</Point>
		</Placemark>
		<Placemark>
			<name>71</name>
			<LookAt>
				<longitude>101.5296807366436</longitude>
				<latitude>-1.676012753495283</latitude>
				<altitude>0</altitude>
				<heading>-2.546945584886755</heading>
				<tilt>9.446471822915735</tilt>
				<range>2055.654186107611</range>
				<gx:altitudeMode>relativeToSeaFloor</gx:altitudeMode>
			</LookAt>
			<styleUrl>#m_ylw-pushpin</styleUrl>
			<Point>
				<gx:drawOrder>1</gx:drawOrder>
				<coordinates>101.5228833333333,1.683938888888889,0</coordinates>
			</Point>
		</Placemark>
		<Placemark>
			<name>72</name>
			<LookAt>
				<longitude>101.5296807366436</longitude>
				<latitude>-1.676012753495283</latitude>
				<altitude>0</altitude>
				<heading>-2.546945584886755</heading>
				<tilt>9.446471822915735</tilt>
				<range>2055.654186107611</range>
				<gx:altitudeMode>relativeToSeaFloor</gx:altitudeMode>
			</LookAt>
			<styleUrl>#m_ylw-pushpin</styleUrl>
			<Point>
				<gx:drawOrder>1</gx:drawOrder>
				<coordinates>101.5228916666667,1.683988888888889,0</coordinates>
			</Point>
		</Placemark>
		<Placemark>
			<name>73</name>
			<LookAt>
				<longitude>101.5296807366436</longitude>
				<latitude>-1.676012753495283</latitude>
				<altitude>0</altitude>
				<heading>-2.546945584886755</heading>
				<tilt>9.446471822915735</tilt>
				<range>2055.654186107611</range>
				<gx:altitudeMode>relativeToSeaFloor</gx:altitudeMode>
			</LookAt>
			<styleUrl>#m_ylw-pushpin</styleUrl>
			<Point>
				<gx:drawOrder>1</gx:drawOrder>
				<coordinates>101.5228972222222,1.684041666666667,0</coordinates>
			</Point>
		</Placemark>
		<Placemark>
			<name>74</name>
			<LookAt>
				<longitude>101.5296807366436</longitude>
				<latitude>-1.676012753495283</latitude>
				<altitude>0</altitude>
				<heading>-2.546945584886755</heading>
				<tilt>9.446471822915735</tilt>
				<range>2055.654186107611</range>
				<gx:altitudeMode>relativeToSeaFloor</gx:altitudeMode>
			</LookAt>
			<styleUrl>#m_ylw-pushpin</styleUrl>
			<Point>
				<gx:drawOrder>1</gx:drawOrder>
				<coordinates>101.5233194444444,1.690041666666667,0</coordinates>
			</Point>
		</Placemark>
		<Placemark>
			<name>75</name>
			<LookAt>
				<longitude>101.5296807366436</longitude>
				<latitude>-1.676012753495283</latitude>
				<altitude>0</altitude>
				<heading>-2.546945584886755</heading>
				<tilt>9.446471822915735</tilt>
				<range>2055.654186107611</range>
				<gx:altitudeMode>relativeToSeaFloor</gx:altitudeMode>
			</LookAt>
			<styleUrl>#m_ylw-pushpin</styleUrl>
			<Point>
				<gx:drawOrder>1</gx:drawOrder>
				<coordinates>101.5235388888889,1.690505555555555,0</coordinates>
			</Point>
		</Placemark>
		<Placemark>
			<name>76</name>
			<LookAt>
				<longitude>101.5296807366436</longitude>
				<latitude>-1.676012753495283</latitude>
				<altitude>0</altitude>
				<heading>-2.546945584886755</heading>
				<tilt>9.446471822915735</tilt>
				<range>2055.654186107611</range>
				<gx:altitudeMode>relativeToSeaFloor</gx:altitudeMode>
			</LookAt>
			<styleUrl>#m_ylw-pushpin</styleUrl>
			<Point>
				<gx:drawOrder>1</gx:drawOrder>
				<coordinates>101.5235388888889,1.690508333333333,0</coordinates>
			</Point>
		</Placemark>
		<Placemark>
			<name>77</name>
			<LookAt>
				<longitude>101.5296807366436</longitude>
				<latitude>-1.676012753495283</latitude>
				<altitude>0</altitude>
				<heading>-2.546945584886755</heading>
				<tilt>9.446471822915735</tilt>
				<range>2055.654186107611</range>
				<gx:altitudeMode>relativeToSeaFloor</gx:altitudeMode>
			</LookAt>
			<styleUrl>#m_ylw-pushpin</styleUrl>
			<Point>
				<gx:drawOrder>1</gx:drawOrder>
				<coordinates>101.5235436111111,1.690513888888889,0</coordinates>
			</Point>
		</Placemark>
		<Placemark>
			<name>78</name>
			<LookAt>
				<longitude>101.5296807366436</longitude>
				<latitude>-1.676012753495283</latitude>
				<altitude>0</altitude>
				<heading>-2.546945584886755</heading>
				<tilt>9.446471822915735</tilt>
				<range>2055.654186107611</range>
				<gx:altitudeMode>relativeToSeaFloor</gx:altitudeMode>
			</LookAt>
			<styleUrl>#m_ylw-pushpin</styleUrl>
			<Point>
				<gx:drawOrder>1</gx:drawOrder>
				<coordinates>101.5235491666667,1.690516666666667,0</coordinates>
			</Point>
		</Placemark>
		<Placemark>
			<name>79</name>
			<LookAt>
				<longitude>101.5295222506366</longitude>
				<latitude>-1.692997141455496</latitude>
				<altitude>0</altitude>
				<heading>-2.546941886686942</heading>
				<tilt>9.446361628361958</tilt>
				<range>1980.904448920717</range>
				<gx:altitudeMode>relativeToSeaFloor</gx:altitudeMode>
			</LookAt>
			<styleUrl>#m_ylw-pushpin</styleUrl>
			<Point>
				<gx:drawOrder>1</gx:drawOrder>
				<coordinates>101.5235611111111,1.690522222222222,0</coordinates>
			</Point>
		</Placemark>
		<Placemark>
			<name>80</name>
			<LookAt>
				<longitude>101.5295222506366</longitude>
				<latitude>-1.692997141455496</latitude>
				<altitude>0</altitude>
				<heading>-2.546941886686942</heading>
				<tilt>9.446361628361958</tilt>
				<range>1980.904448920717</range>
				<gx:altitudeMode>relativeToSeaFloor</gx:altitudeMode>
			</LookAt>
			<styleUrl>#m_ylw-pushpin</styleUrl>
			<Point>
				<gx:drawOrder>1</gx:drawOrder>
				<coordinates>101.5235777777778,1.690527777777778,0</coordinates>
			</Point>
		</Placemark>
		<Placemark>
			<name>81</name>
			<LookAt>
				<longitude>101.5295222506366</longitude>
				<latitude>-1.692997141455496</latitude>
				<altitude>0</altitude>
				<heading>-2.546941886686942</heading>
				<tilt>9.446361628361958</tilt>
				<range>1980.904448920717</range>
				<gx:altitudeMode>relativeToSeaFloor</gx:altitudeMode>
			</LookAt>
			<styleUrl>#m_ylw-pushpin</styleUrl>
			<Point>
				<gx:drawOrder>1</gx:drawOrder>
				<coordinates>101.5235972222222,1.690533333333333,0</coordinates>
			</Point>
		</Placemark>
		<Placemark>
			<name>82</name>
			<LookAt>
				<longitude>101.5295222506366</longitude>
				<latitude>-1.692997141455496</latitude>
				<altitude>0</altitude>
				<heading>-2.546941886686942</heading>
				<tilt>9.446361628361958</tilt>
				<range>1980.904448920717</range>
				<gx:altitudeMode>relativeToSeaFloor</gx:altitudeMode>
			</LookAt>
			<styleUrl>#m_ylw-pushpin</styleUrl>
			<Point>
				<gx:drawOrder>1</gx:drawOrder>
				<coordinates>101.5236722222222,1.690561111111111,0</coordinates>
			</Point>
		</Placemark>
		<Placemark>
			<name>83</name>
			<LookAt>
				<longitude>101.5295222506366</longitude>
				<latitude>-1.692997141455496</latitude>
				<altitude>0</altitude>
				<heading>-2.546941886686942</heading>
				<tilt>9.446361628361958</tilt>
				<range>1980.904448920717</range>
				<gx:altitudeMode>relativeToSeaFloor</gx:altitudeMode>
			</LookAt>
			<styleUrl>#m_ylw-pushpin</styleUrl>
			<Point>
				<gx:drawOrder>1</gx:drawOrder>
				<coordinates>101.5241277777778,1.690722222222222,0</coordinates>
			</Point>
		</Placemark>
		<Placemark>
			<name>84</name>
			<LookAt>
				<longitude>101.5295222506366</longitude>
				<latitude>-1.692997141455496</latitude>
				<altitude>0</altitude>
				<heading>-2.546941886686942</heading>
				<tilt>9.446361628361958</tilt>
				<range>1980.904448920717</range>
				<gx:altitudeMode>relativeToSeaFloor</gx:altitudeMode>
			</LookAt>
			<styleUrl>#m_ylw-pushpin</styleUrl>
			<Point>
				<gx:drawOrder>1</gx:drawOrder>
				<coordinates>101.5241663888889,1.690738888888889,0</coordinates>
			</Point>
		</Placemark>
		<Placemark>
			<name>85</name>
			<LookAt>
				<longitude>101.5295222506366</longitude>
				<latitude>-1.692997141455496</latitude>
				<altitude>0</altitude>
				<heading>-2.546941886686942</heading>
				<tilt>9.446361628361958</tilt>
				<range>1980.904448920717</range>
				<gx:altitudeMode>relativeToSeaFloor</gx:altitudeMode>
			</LookAt>
			<styleUrl>#m_ylw-pushpin</styleUrl>
			<Point>
				<gx:drawOrder>1</gx:drawOrder>
				<coordinates>101.5242027777778,1.690763888888889,0</coordinates>
			</Point>
		</Placemark>
		<Placemark>
			<name>86</name>
			<LookAt>
				<longitude>101.5295222506366</longitude>
				<latitude>-1.692997141455496</latitude>
				<altitude>0</altitude>
				<heading>-2.546941886686942</heading>
				<tilt>9.446361628361958</tilt>
				<range>1980.904448920717</range>
				<gx:altitudeMode>relativeToSeaFloor</gx:altitudeMode>
			</LookAt>
			<styleUrl>#m_ylw-pushpin</styleUrl>
			<Point>
				<gx:drawOrder>1</gx:drawOrder>
				<coordinates>101.5242333333333,1.690791666666667,0</coordinates>
			</Point>
		</Placemark>
		<Placemark>
			<name>87</name>
			<LookAt>
				<longitude>101.5295222506366</longitude>
				<latitude>-1.692997141455496</latitude>
				<altitude>0</altitude>
				<heading>-2.546941886686942</heading>
				<tilt>9.446361628361958</tilt>
				<range>1980.904448920717</range>
				<gx:altitudeMode>relativeToSeaFloor</gx:altitudeMode>
			</LookAt>
			<styleUrl>#m_ylw-pushpin</styleUrl>
			<Point>
				<gx:drawOrder>1</gx:drawOrder>
				<coordinates>101.5242611111111,1.690825,0</coordinates>
			</Point>
		</Placemark>
		<Placemark>
			<name>88</name>
			<LookAt>
				<longitude>101.5295222506366</longitude>
				<latitude>-1.692997141455496</latitude>
				<altitude>0</altitude>
				<heading>-2.546941886686942</heading>
				<tilt>9.446361628361958</tilt>
				<range>1980.904448920717</range>
				<gx:altitudeMode>relativeToSeaFloor</gx:altitudeMode>
			</LookAt>
			<styleUrl>#m_ylw-pushpin</styleUrl>
			<Point>
				<gx:drawOrder>1</gx:drawOrder>
				<coordinates>101.5243,1.690863888888889,0</coordinates>
			</Point>
		</Placemark>
		<Placemark>
			<name>89</name>
			<LookAt>
				<longitude>101.5295222506366</longitude>
				<latitude>-1.692997141455496</latitude>
				<altitude>0</altitude>
				<heading>-2.546941886686942</heading>
				<tilt>9.446361628361958</tilt>
				<range>1980.904448920717</range>
				<gx:altitudeMode>relativeToSeaFloor</gx:altitudeMode>
			</LookAt>
			<styleUrl>#m_ylw-pushpin</styleUrl>
			<Point>
				<gx:drawOrder>1</gx:drawOrder>
				<coordinates>101.5248725,1.692141666666667,0</coordinates>
			</Point>
		</Placemark>
		<Placemark>
			<name>90</name>
			<LookAt>
				<longitude>101.5295222506366</longitude>
				<latitude>-1.692997141455496</latitude>
				<altitude>0</altitude>
				<heading>-2.546941886686942</heading>
				<tilt>9.446361628361958</tilt>
				<range>1980.904448920717</range>
				<gx:altitudeMode>relativeToSeaFloor</gx:altitudeMode>
			</LookAt>
			<styleUrl>#m_ylw-pushpin</styleUrl>
			<Point>
				<gx:drawOrder>1</gx:drawOrder>
				<coordinates>101.5254805555555,1.692013888888889,0</coordinates>
			</Point>
		</Placemark>
		<Placemark>
			<name>91</name>
			<LookAt>
				<longitude>101.5295222506366</longitude>
				<latitude>-1.692997141455496</latitude>
				<altitude>0</altitude>
				<heading>-2.546941886686942</heading>
				<tilt>9.446361628361958</tilt>
				<range>1980.904448920717</range>
				<gx:altitudeMode>relativeToSeaFloor</gx:altitudeMode>
			</LookAt>
			<styleUrl>#m_ylw-pushpin</styleUrl>
			<Point>
				<gx:drawOrder>1</gx:drawOrder>
				<coordinates>101.5255055555556,1.692008333333334,0</coordinates>
			</Point>
		</Placemark>
		<Placemark>
			<name>92</name>
			<LookAt>
				<longitude>101.5295222506366</longitude>
				<latitude>-1.692997141455496</latitude>
				<altitude>0</altitude>
				<heading>-2.546941886686942</heading>
				<tilt>9.446361628361958</tilt>
				<range>1980.904448920717</range>
				<gx:altitudeMode>relativeToSeaFloor</gx:altitudeMode>
			</LookAt>
			<styleUrl>#m_ylw-pushpin</styleUrl>
			<Point>
				<gx:drawOrder>1</gx:drawOrder>
				<coordinates>101.5270222222222,1.691836111111111,0</coordinates>
			</Point>
		</Placemark>
		<Placemark>
			<name>93</name>
			<LookAt>
				<longitude>101.5295222506366</longitude>
				<latitude>-1.692997141455496</latitude>
				<altitude>0</altitude>
				<heading>-2.546941886686942</heading>
				<tilt>9.446361628361958</tilt>
				<range>1980.904448920717</range>
				<gx:altitudeMode>relativeToSeaFloor</gx:altitudeMode>
			</LookAt>
			<styleUrl>#m_ylw-pushpin</styleUrl>
			<Point>
				<gx:drawOrder>1</gx:drawOrder>
				<coordinates>101.5270638888889,1.691836111111111,0</coordinates>
			</Point>
		</Placemark>
		<Placemark>
			<name>94</name>
			<LookAt>
				<longitude>101.5295222506366</longitude>
				<latitude>-1.692997141455496</latitude>
				<altitude>0</altitude>
				<heading>-2.546941886686942</heading>
				<tilt>9.446361628361958</tilt>
				<range>1980.904448920717</range>
				<gx:altitudeMode>relativeToSeaFloor</gx:altitudeMode>
			</LookAt>
			<styleUrl>#m_ylw-pushpin</styleUrl>
			<Point>
				<gx:drawOrder>1</gx:drawOrder>
				<coordinates>101.5271055555556,1.691841666666667,0</coordinates>
			</Point>
		</Placemark>
		<Placemark>
			<name>95</name>
			<LookAt>
				<longitude>101.5295222506366</longitude>
				<latitude>-1.692997141455496</latitude>
				<altitude>0</altitude>
				<heading>-2.546941886686942</heading>
				<tilt>9.446361628361958</tilt>
				<range>1980.904448920717</range>
				<gx:altitudeMode>relativeToSeaFloor</gx:altitudeMode>
			</LookAt>
			<styleUrl>#m_ylw-pushpin</styleUrl>
			<Point>
				<gx:drawOrder>1</gx:drawOrder>
				<coordinates>101.5271444444444,1.691852777777778,0</coordinates>
			</Point>
		</Placemark>
		<Placemark>
			<name>96</name>
			<LookAt>
				<longitude>101.5295222506366</longitude>
				<latitude>-1.692997141455496</latitude>
				<altitude>0</altitude>
				<heading>-2.546941886686942</heading>
				<tilt>9.446361628361958</tilt>
				<range>1980.904448920717</range>
				<gx:altitudeMode>relativeToSeaFloor</gx:altitudeMode>
			</LookAt>
			<styleUrl>#m_ylw-pushpin</styleUrl>
			<Point>
				<gx:drawOrder>1</gx:drawOrder>
				<coordinates>101.5271833333333,1.691869444444444,0</coordinates>
			</Point>
		</Placemark>
		<Placemark>
			<name>97</name>
			<LookAt>
				<longitude>101.5295222506366</longitude>
				<latitude>-1.692997141455496</latitude>
				<altitude>0</altitude>
				<heading>-2.546941886686942</heading>
				<tilt>9.446361628361958</tilt>
				<range>1980.904448920717</range>
				<gx:altitudeMode>relativeToSeaFloor</gx:altitudeMode>
			</LookAt>
			<styleUrl>#m_ylw-pushpin</styleUrl>
			<Point>
				<gx:drawOrder>1</gx:drawOrder>
				<coordinates>101.5272166666667,1.691891666666667,0</coordinates>
			</Point>
		</Placemark>
		<Placemark>
			<name>98</name>
			<LookAt>
				<longitude>101.5295222506366</longitude>
				<latitude>-1.692997141455496</latitude>
				<altitude>0</altitude>
				<heading>-2.546941886686942</heading>
				<tilt>9.446361628361958</tilt>
				<range>1980.904448920717</range>
				<gx:altitudeMode>relativeToSeaFloor</gx:altitudeMode>
			</LookAt>
			<styleUrl>#m_ylw-pushpin</styleUrl>
			<Point>
				<gx:drawOrder>1</gx:drawOrder>
				<coordinates>101.5280166666666,1.692519444444444,0</coordinates>
			</Point>
		</Placemark>
		<Placemark>
			<name>99</name>
			<LookAt>
				<longitude>101.5295222506366</longitude>
				<latitude>-1.692997141455496</latitude>
				<altitude>0</altitude>
				<heading>-2.546941886686942</heading>
				<tilt>9.446361628361958</tilt>
				<range>1980.904448920717</range>
				<gx:altitudeMode>relativeToSeaFloor</gx:altitudeMode>
			</LookAt>
			<styleUrl>#m_ylw-pushpin</styleUrl>
			<Point>
				<gx:drawOrder>1</gx:drawOrder>
				<coordinates>101.528025,1.692525,0</coordinates>
			</Point>
		</Placemark>
		<Placemark>
			<name>100</name>
			<LookAt>
				<longitude>101.5295222506366</longitude>
				<latitude>-1.692997141455496</latitude>
				<altitude>0</altitude>
				<heading>-2.546941886686942</heading>
				<tilt>9.446361628361958</tilt>
				<range>1980.904448920717</range>
				<gx:altitudeMode>relativeToSeaFloor</gx:altitudeMode>
			</LookAt>
			<styleUrl>#m_ylw-pushpin</styleUrl>
			<Point>
				<gx:drawOrder>1</gx:drawOrder>
				<coordinates>101.5280361111111,1.692533333333333,0</coordinates>
			</Point>
		</Placemark>
		<Placemark>
			<name>101</name>
			<LookAt>
				<longitude>101.5295222506366</longitude>
				<latitude>-1.692997141455496</latitude>
				<altitude>0</altitude>
				<heading>-2.546941886686942</heading>
				<tilt>9.446361628361958</tilt>
				<range>1980.904448920717</range>
				<gx:altitudeMode>relativeToSeaFloor</gx:altitudeMode>
			</LookAt>
			<styleUrl>#m_ylw-pushpin</styleUrl>
			<Point>
				<gx:drawOrder>1</gx:drawOrder>
				<coordinates>101.5280388888889,1.692536111111111,0</coordinates>
			</Point>
		</Placemark>
		<Placemark>
			<name>102</name>
			<LookAt>
				<longitude>101.5295222506366</longitude>
				<latitude>-1.692997141455496</latitude>
				<altitude>0</altitude>
				<heading>-2.546941886686942</heading>
				<tilt>9.446361628361958</tilt>
				<range>1980.904448920717</range>
				<gx:altitudeMode>relativeToSeaFloor</gx:altitudeMode>
			</LookAt>
			<styleUrl>#m_ylw-pushpin</styleUrl>
			<Point>
				<gx:drawOrder>1</gx:drawOrder>
				<coordinates>101.5280416666667,1.692538888888889,0</coordinates>
			</Point>
		</Placemark>
		<Placemark>
			<name>103</name>
			<LookAt>
				<longitude>101.5295222506366</longitude>
				<latitude>-1.692997141455496</latitude>
				<altitude>0</altitude>
				<heading>-2.546941886686942</heading>
				<tilt>9.446361628361958</tilt>
				<range>1980.904448920717</range>
				<gx:altitudeMode>relativeToSeaFloor</gx:altitudeMode>
			</LookAt>
			<styleUrl>#m_ylw-pushpin</styleUrl>
			<Point>
				<gx:drawOrder>1</gx:drawOrder>
				<coordinates>101.5280638888889,1.69255,0</coordinates>
			</Point>
		</Placemark>
		<Placemark>
			<name>104</name>
			<LookAt>
				<longitude>101.5295222506366</longitude>
				<latitude>-1.692997141455496</latitude>
				<altitude>0</altitude>
				<heading>-2.546941886686942</heading>
				<tilt>9.446361628361958</tilt>
				<range>1980.904448920717</range>
				<gx:altitudeMode>relativeToSeaFloor</gx:altitudeMode>
			</LookAt>
			<styleUrl>#m_ylw-pushpin</styleUrl>
			<Point>
				<gx:drawOrder>1</gx:drawOrder>
				<coordinates>101.5281041666667,1.692572222222222,0</coordinates>
			</Point>
		</Placemark>
		<Placemark>
			<name>105</name>
			<LookAt>
				<longitude>101.5295222506366</longitude>
				<latitude>-1.692997141455496</latitude>
				<altitude>0</altitude>
				<heading>-2.546941886686942</heading>
				<tilt>9.446361628361958</tilt>
				<range>1980.904448920717</range>
				<gx:altitudeMode>relativeToSeaFloor</gx:altitudeMode>
			</LookAt>
			<styleUrl>#m_ylw-pushpin</styleUrl>
			<Point>
				<gx:drawOrder>1</gx:drawOrder>
				<coordinates>101.52815,1.692597222222223,0</coordinates>
			</Point>
		</Placemark>
		<Placemark>
			<name>106</name>
			<LookAt>
				<longitude>101.5295222506366</longitude>
				<latitude>-1.692997141455496</latitude>
				<altitude>0</altitude>
				<heading>-2.546941886686942</heading>
				<tilt>9.446361628361958</tilt>
				<range>1980.904448920717</range>
				<gx:altitudeMode>relativeToSeaFloor</gx:altitudeMode>
			</LookAt>
			<styleUrl>#m_ylw-pushpin</styleUrl>
			<Point>
				<gx:drawOrder>1</gx:drawOrder>
				<coordinates>101.528175,1.692613888888889,0</coordinates>
			</Point>
		</Placemark>
		<Placemark>
			<name>107</name>
			<LookAt>
				<longitude>101.5295222506366</longitude>
				<latitude>-1.692997141455496</latitude>
				<altitude>0</altitude>
				<heading>-2.546941886686942</heading>
				<tilt>9.446361628361958</tilt>
				<range>1980.904448920717</range>
				<gx:altitudeMode>relativeToSeaFloor</gx:altitudeMode>
			</LookAt>
			<styleUrl>#m_ylw-pushpin</styleUrl>
			<Point>
				<gx:drawOrder>1</gx:drawOrder>
				<coordinates>101.5282083333334,1.692636111111111,0</coordinates>
			</Point>
		</Placemark>
		<Placemark>
			<name>108</name>
			<LookAt>
				<longitude>101.5295222506366</longitude>
				<latitude>-1.692997141455496</latitude>
				<altitude>0</altitude>
				<heading>-2.546941886686942</heading>
				<tilt>9.446361628361958</tilt>
				<range>1980.904448920717</range>
				<gx:altitudeMode>relativeToSeaFloor</gx:altitudeMode>
			</LookAt>
			<styleUrl>#m_ylw-pushpin</styleUrl>
			<Point>
				<gx:drawOrder>1</gx:drawOrder>
				<coordinates>101.5282333333333,1.692652777777778,0</coordinates>
			</Point>
		</Placemark>
		<Placemark>
			<name>109</name>
			<LookAt>
				<longitude>101.5295222506366</longitude>
				<latitude>-1.692997141455496</latitude>
				<altitude>0</altitude>
				<heading>-2.546941886686942</heading>
				<tilt>9.446361628361958</tilt>
				<range>1980.904448920717</range>
				<gx:altitudeMode>relativeToSeaFloor</gx:altitudeMode>
			</LookAt>
			<styleUrl>#m_ylw-pushpin</styleUrl>
			<Point>
				<gx:drawOrder>1</gx:drawOrder>
				<coordinates>101.5282527777778,1.692663888888889,0</coordinates>
			</Point>
		</Placemark>
		<Placemark>
			<name>110</name>
			<LookAt>
				<longitude>101.5295222506366</longitude>
				<latitude>-1.692997141455496</latitude>
				<altitude>0</altitude>
				<heading>-2.546941886686942</heading>
				<tilt>9.446361628361958</tilt>
				<range>1980.904448920717</range>
				<gx:altitudeMode>relativeToSeaFloor</gx:altitudeMode>
			</LookAt>
			<styleUrl>#m_ylw-pushpin</styleUrl>
			<Point>
				<gx:drawOrder>1</gx:drawOrder>
				<coordinates>101.5287972222222,1.692875,0</coordinates>
			</Point>
		</Placemark>
		<Placemark>
			<name>111</name>
			<LookAt>
				<longitude>101.5295222506366</longitude>
				<latitude>-1.692997141455496</latitude>
				<altitude>0</altitude>
				<heading>-2.546941886686942</heading>
				<tilt>9.446361628361958</tilt>
				<range>1980.904448920717</range>
				<gx:altitudeMode>relativeToSeaFloor</gx:altitudeMode>
			</LookAt>
			<styleUrl>#m_ylw-pushpin</styleUrl>
			<Point>
				<gx:drawOrder>1</gx:drawOrder>
				<coordinates>101.5289027777778,1.692930555555555,0</coordinates>
			</Point>
		</Placemark>
		<Placemark>
			<name>112</name>
			<LookAt>
				<longitude>101.5295222506366</longitude>
				<latitude>-1.692997141455496</latitude>
				<altitude>0</altitude>
				<heading>-2.546941886686942</heading>
				<tilt>9.446361628361958</tilt>
				<range>1980.904448920717</range>
				<gx:altitudeMode>relativeToSeaFloor</gx:altitudeMode>
			</LookAt>
			<styleUrl>#m_ylw-pushpin</styleUrl>
			<Point>
				<gx:drawOrder>1</gx:drawOrder>
				<coordinates>101.529025,1.693,0</coordinates>
			</Point>
		</Placemark>
		<Placemark>
			<name>113</name>
			<LookAt>
				<longitude>101.5295222506366</longitude>
				<latitude>-1.692997141455496</latitude>
				<altitude>0</altitude>
				<heading>-2.546941886686942</heading>
				<tilt>9.446361628361958</tilt>
				<range>1980.904448920717</range>
				<gx:altitudeMode>relativeToSeaFloor</gx:altitudeMode>
			</LookAt>
			<styleUrl>#m_ylw-pushpin</styleUrl>
			<Point>
				<gx:drawOrder>1</gx:drawOrder>
				<coordinates>101.5290294444444,1.693002777777778,0</coordinates>
			</Point>
		</Placemark>
		<Placemark>
			<name>114</name>
			<LookAt>
				<longitude>101.5295222506366</longitude>
				<latitude>-1.692997141455496</latitude>
				<altitude>0</altitude>
				<heading>-2.546941886686942</heading>
				<tilt>9.446361628361958</tilt>
				<range>1980.904448920717</range>
				<gx:altitudeMode>relativeToSeaFloor</gx:altitudeMode>
			</LookAt>
			<styleUrl>#m_ylw-pushpin</styleUrl>
			<Point>
				<gx:drawOrder>1</gx:drawOrder>
				<coordinates>101.5291666666667,1.693075,0</coordinates>
			</Point>
		</Placemark>
		<Placemark>
			<name>115</name>
			<LookAt>
				<longitude>101.5295222506366</longitude>
				<latitude>-1.692997141455496</latitude>
				<altitude>0</altitude>
				<heading>-2.546941886686942</heading>
				<tilt>9.446361628361958</tilt>
				<range>1980.904448920717</range>
				<gx:altitudeMode>relativeToSeaFloor</gx:altitudeMode>
			</LookAt>
			<styleUrl>#m_ylw-pushpin</styleUrl>
			<Point>
				<gx:drawOrder>1</gx:drawOrder>
				<coordinates>101.5365111111111,1.698830555555556,0</coordinates>
			</Point>
		</Placemark>
		<Placemark>
			<name>116</name>
			<LookAt>
				<longitude>101.5295222506366</longitude>
				<latitude>-1.692997141455496</latitude>
				<altitude>0</altitude>
				<heading>-2.546941886686942</heading>
				<tilt>9.446361628361958</tilt>
				<range>1980.904448920717</range>
				<gx:altitudeMode>relativeToSeaFloor</gx:altitudeMode>
			</LookAt>
			<styleUrl>#m_ylw-pushpin</styleUrl>
			<Point>
				<gx:drawOrder>1</gx:drawOrder>
				<coordinates>101.5366111111111,1.698911111111111,0</coordinates>
			</Point>
		</Placemark>
		<Placemark>
			<name>117</name>
			<LookAt>
				<longitude>101.5295222506366</longitude>
				<latitude>-1.692997141455496</latitude>
				<altitude>0</altitude>
				<heading>-2.546941886686942</heading>
				<tilt>9.446361628361958</tilt>
				<range>1980.904448920717</range>
				<gx:altitudeMode>relativeToSeaFloor</gx:altitudeMode>
			</LookAt>
			<styleUrl>#m_ylw-pushpin</styleUrl>
			<Point>
				<gx:drawOrder>1</gx:drawOrder>
				<coordinates>101.5367094444444,1.698991666666667,0</coordinates>
			</Point>
		</Placemark>
		<Placemark>
			<name>118</name>
			<LookAt>
				<longitude>101.5295222506366</longitude>
				<latitude>-1.692997141455496</latitude>
				<altitude>0</altitude>
				<heading>-2.546941886686942</heading>
				<tilt>9.446361628361958</tilt>
				<range>1980.904448920717</range>
				<gx:altitudeMode>relativeToSeaFloor</gx:altitudeMode>
			</LookAt>
			<styleUrl>#m_ylw-pushpin</styleUrl>
			<Point>
				<gx:drawOrder>1</gx:drawOrder>
				<coordinates>101.5367361111111,1.699022222222222,0</coordinates>
			</Point>
		</Placemark>
		<Placemark>
			<name>119</name>
			<LookAt>
				<longitude>101.5295222506366</longitude>
				<latitude>-1.692997141455496</latitude>
				<altitude>0</altitude>
				<heading>-2.546941886686942</heading>
				<tilt>9.446361628361958</tilt>
				<range>1980.904448920717</range>
				<gx:altitudeMode>relativeToSeaFloor</gx:altitudeMode>
			</LookAt>
			<styleUrl>#m_ylw-pushpin</styleUrl>
			<Point>
				<gx:drawOrder>1</gx:drawOrder>
				<coordinates>101.5367722222222,1.699066666666667,0</coordinates>
			</Point>
		</Placemark>
		<Placemark>
			<name>120</name>
			<LookAt>
				<longitude>101.5295222506366</longitude>
				<latitude>-1.692997141455496</latitude>
				<altitude>0</altitude>
				<heading>-2.546941886686942</heading>
				<tilt>9.446361628361958</tilt>
				<range>1980.904448920717</range>
				<gx:altitudeMode>relativeToSeaFloor</gx:altitudeMode>
			</LookAt>
			<styleUrl>#m_ylw-pushpin</styleUrl>
			<Point>
				<gx:drawOrder>1</gx:drawOrder>
				<coordinates>101.5374613888889,1.699858333333333,0</coordinates>
			</Point>
		</Placemark>
		<Placemark>
			<name>121</name>
			<LookAt>
				<longitude>101.5295222506366</longitude>
				<latitude>-1.692997141455496</latitude>
				<altitude>0</altitude>
				<heading>-2.546941886686942</heading>
				<tilt>9.446361628361958</tilt>
				<range>1980.904448920717</range>
				<gx:altitudeMode>relativeToSeaFloor</gx:altitudeMode>
			</LookAt>
			<styleUrl>#m_ylw-pushpin</styleUrl>
			<Point>
				<gx:drawOrder>1</gx:drawOrder>
				<coordinates>101.5375611111111,1.699975,0</coordinates>
			</Point>
		</Placemark>
		<Placemark>
			<name>122</name>
			<LookAt>
				<longitude>101.5295222506366</longitude>
				<latitude>-1.692997141455496</latitude>
				<altitude>0</altitude>
				<heading>-2.546941886686942</heading>
				<tilt>9.446361628361958</tilt>
				<range>1980.904448920717</range>
				<gx:altitudeMode>relativeToSeaFloor</gx:altitudeMode>
			</LookAt>
			<styleUrl>#m_ylw-pushpin</styleUrl>
			<Point>
				<gx:drawOrder>1</gx:drawOrder>
				<coordinates>101.5376613888889,1.700108333333333,0</coordinates>
			</Point>
		</Placemark>
		<Placemark>
			<name>123</name>
			<LookAt>
				<longitude>101.5295222506366</longitude>
				<latitude>-1.692997141455496</latitude>
				<altitude>0</altitude>
				<heading>-2.546941886686942</heading>
				<tilt>9.446361628361958</tilt>
				<range>1980.904448920717</range>
				<gx:altitudeMode>relativeToSeaFloor</gx:altitudeMode>
			</LookAt>
			<styleUrl>#m_ylw-pushpin</styleUrl>
			<Point>
				<gx:drawOrder>1</gx:drawOrder>
				<coordinates>101.5378133333333,1.700325,0</coordinates>
			</Point>
		</Placemark>
		<Placemark>
			<name>124</name>
			<LookAt>
				<longitude>101.5295222506366</longitude>
				<latitude>-1.692997141455496</latitude>
				<altitude>0</altitude>
				<heading>-2.546941886686942</heading>
				<tilt>9.446361628361958</tilt>
				<range>1980.904448920717</range>
				<gx:altitudeMode>relativeToSeaFloor</gx:altitudeMode>
			</LookAt>
			<styleUrl>#m_ylw-pushpin</styleUrl>
			<Point>
				<gx:drawOrder>1</gx:drawOrder>
				<coordinates>101.538275,1.700883333333333,0</coordinates>
			</Point>
		</Placemark>
	</Folder>
</Document>
</kml>
